OBJECT_NAME,OBJECT_ID,EPOCH,MEAN_MOTION,ECCENTRICITY,INCLINATION,RA_OF_ASC_NODE,ARG_OF_PERICENTER,MEAN_ANOMALY,EPHEMERIS_TYPE,CLASSIFICATION_TYPE,NORAD_CAT_ID,ELEMENT_SET_NO,REV_AT_EPOCH,BSTAR,MEAN_MOTION_DOT,MEAN_MOTION_DDOT
HYSIS,2018-096A,2026-06-04T19:52:20.161632,14.78670653,.0001569,97.9840,222.6720,114.8020,245.3354,0,U,43719,999,40559,.2259E-3,.1604E-4,0
KAZSTSAT,2018-099AB,2026-06-04T02:06:44.944416,14.99830724,.0007406,97.4265,187.6128,103.9174,256.2874,0,U,43783,999,40934,.12339E-3,.1472E-4,0
SAUDISAT 5A,2018-102A,2026-06-04T20:28:26.112000,15.27916095,.0010037,97.3068,217.6725,168.2154,191.9322,0,U,43831,999,41379,.25119E-3,.678E-4,0
SAUDISAT 5B,2018-102C,2026-06-04T20:58:35.616576,15.28179685,.0010686,97.3176,220.7402,170.9253,189.2182,0,U,43833,999,41391,.2304E-3,.6264E-4,0
GAOFEN-10R,2019-066A,2026-06-04T20:58:59.320416,14.83033258,.0005755,98.0497,109.3644,162.5864,197.5548,0,U,44622,999,36055,.1848E-3,.1448E-4,0
CARTOSAT-3,2019-081A,2026-06-04T18:35:41.308224,15.19359044,.0012327,97.4308,217.8408,187.9749,172.1292,0,U,44804,999,36158,.18847E-3,.3923E-4,0
GAOFEN-12 01,2019-082A,2026-06-04T20:18:37.303776,14.80448325,.0002522,97.8101,162.5516,84.7679,275.3821,0,U,44819,999,35226,.72067E-4,.5E-5,0
CSG-1,2019-092A,2026-06-04T19:57:59.303232,14.82154294,.0001433,97.8887,339.6135,91.0175,269.1203,0,U,44873,999,34964,.77951E-4,.568E-5,0
NEMO-HD,2020-061F,2026-06-04T19:40:24.595104,15.44334871,.0002642,97.1921,217.8994,94.5444,265.6106,0,U,46277,999,32007,.25484E-3,.11665E-3,0
SENTINEL-6A,2020-086A,2026-06-04T04:52:15.198816,12.80929619,.0007954,66.0385,162.0209,270.1989,89.8115,0,U,46984,999,25866,.18589E-4,-.57E-6,0
CAS500-1,2021-022A,2026-06-04T19:40:29.519040,15.20184205,.0004544,97.3910,51.3223,351.4317,8.6840,0,U,47932,999,28888,.34506E-3,.7408E-4,0
GAOFEN-12 02,2021-026A,2026-06-04T20:32:38.932224,14.80286329,.0003333,97.9920,154.0873,277.7418,82.3415,0,U,48079,999,27993,.69122E-4,.474E-5,0
PLEIADES NEO 3,2021-034A,2026-06-02T09:30:14.112288,14.81680615,.00014715,97.8935,228.3753,92.5758,267.5623,0,U,48268,999,27546,.18487892E-3,.1403E-4,0
PLEIADES NEO 4,2021-073E,2026-06-04T10:56:15.219744,14.81677018,.0001444,97.8930,230.4012,87.6628,272.4750,0,U,49070,999,25948,.21714E-3,.1657E-4,0
LANDSAT 9,2021-088A,2026-06-04T03:34:53.012352,14.57125344,.0001501,98.1855,225.4863,95.9861,264.1509,0,U,49260,999,24910,.10795E-3,.441E-5,0
CSG-2,2022-008A,2026-06-04T19:09:21.393792,14.82163991,.0001445,97.8880,339.5753,83.5035,276.6342,0,U,51444,999,23475,.47456E-4,.326E-5,0
GAOFEN-12 03,2022-069A,2026-06-04T21:12:29.233152,14.80013204,.0001475,97.8292,44.0634,110.8505,249.2865,0,U,52912,999,21279,.79145E-4,.548E-5,0
SWOT,2022-173A,2026-06-04T16:45:16.646112,14.00173248,.0000208,77.6112,52.1695,99.5662,260.5513,0,U,54754,999,17740,.38028E-4,.54E-6,0
GAOFEN-12 04,2023-123A,2026-06-04T20:01:29.106624,14.80204561,.0001767,97.9129,74.0294,89.0445,271.0970,0,U,57654,999,15080,.17377E-3,.1269E-4,0
PARS 1,2024-039Q,2026-06-04T21:13:01.067232,15.45463013,.0010571,97.4823,136.4194,149.0228,211.1646,0,U,59065,999,12674,.26217E-3,.12493E-3,0
RESURS-P 4,2024-061A,2026-06-04T20:29:29.588352,15.32058785,.000122,97.2750,103.9686,129.9130,230.2219,0,U,59371,999,12187,.12327E-3,.3739E-4,0
LEGION 1,2024-081A,2026-06-04T05:30:17.428032,15.16572810,.00106021,97.5016,233.2255,59.1771,301.0504,0,U,59625,999,11557,.25548485E-3,.4927E-4,0
LEGION 2,2024-081B,2026-06-04T06:13:12.904896,15.16553375,.00120439,97.5016,233.3528,28.7822,331.4073,0,U,59626,999,11558,.22068808E-3,.4245E-4,0
ALOS-4 (DAICHI-4),2024-123A,2026-06-04T20:23:01.851936,14.79469092,.0001694,97.9239,253.1963,99.3382,260.8021,0,U,60182,999,10405,.25561E-3,.1858E-4,0
LEGION 3,2024-146A,2026-06-04T03:35:29.528448,15.15933743,.00067214,45.0008,100.4718,86.2017,273.9630,0,U,60452,999,10004,.24449837E-3,.4507E-4,0
LEGION 4,2024-146B,2026-06-04T06:49:39.806400,15.15940432,.00139258,44.9994,191.6605,241.4075,118.5403,0,U,60453,999,9891,.21219785E-3,.3882E-4,0
SENTINEL-2C,2024-157A,2026-06-04T02:17:40.511328,14.30814144,.0001244,98.5692,230.0621,79.6188,280.5135,0,U,60989,999,9111,.70071023E-4,.14E-5,0
IONOSFERA-M 1,2024-199A,2026-06-04T06:05:29.177088,14.22751904,.00015218,98.7188,28.5617,127.4885,232.6431,0,U,61735,999,12586,.50519187E-4,.69E-6,0
IONOSFERA-M 2,2024-199B,2026-06-04T06:54:55.034208,14.22755093,.00015351,98.7186,28.5063,50.5097,309.6217,0,U,61736,999,12899,.55210878E-4,.8E-6,0
PRSC-EO1,2025-012A,2026-06-03T06:42:57.565152,15.17750222,.0004074,97.4226,227.0114,321.0187,39.0752,0,U,62725,999,7608,.45362E-3,.9097E-4,0
BIOMASS,2025-090A,2026-06-04T01:53:32.904384,14.67537224,.00013977,98.0746,342.5882,63.8966,296.2382,0,U,63772,999,5876,.13087807E-3,.694E-5,0
