HYSIS                   
1 43719U 18096A   26155.82801113  .00001604  00000+0  22590-3 0  9992
2 43719  97.9840 222.6720 0001569 114.8020 245.3354 14.78670653405597
KAZSTSAT                
1 43783U 18099AB  26155.08802019  .00001472  00000+0  12339-3 0  9993
2 43783  97.4265 187.6128 0007406 103.9174 256.2874 14.99830724409346
SAUDISAT 5A             
1 43831U 18102A   26155.85308000  .00006780  00000+0  25119-3 0  9995
2 43831  97.3068 217.6725 0010037 168.2154 191.9322 15.27916095413798
SAUDISAT 5B             
1 43833U 18102C   26155.87402334  .00006264  00000+0  23040-3 0  9992
2 43833  97.3176 220.7402 0010686 170.9253 189.2182 15.28179685413912
GAOFEN-10R              
1 44622U 19066A   26155.87429769  .00001448  00000+0  18480-3 0  9991
2 44622  98.0497 109.3644 0005755 162.5864 197.5548 14.83033258360553
CARTOSAT-3              
1 44804U 19081A   26155.77478366  .00003923  00000+0  18847-3 0  9993
2 44804  97.4308 217.8408 0012327 187.9749 172.1292 15.19359044361581
GAOFEN-12 01            
1 44819U 19082A   26155.84626509  .00000500  00000+0  72067-4 0  9995
2 44819  97.8101 162.5516 0002522  84.7679 275.3821 14.80448325352267
CSG-1                   
1 44873U 19092A   26155.83193638  .00000568  00000+0  77951-4 0  9998
2 44873  97.8887 339.6135 0001433  91.0175 269.1203 14.82154294349648
NEMO-HD                 
1 46277U 20061F   26155.81972911  .00011665  00000+0  25484-3 0  9996
2 46277  97.1921 217.8994 0002642  94.5444 265.6106 15.44334871320079
SENTINEL-6A             
1 46984U 20086A   26155.20295369 -.00000057  00000+0  18589-4 0  9999
2 46984  66.0385 162.0209 0007954 270.1989  89.8115 12.80929619258668
CAS500-1                
1 47932U 21022A   26155.81978610  .00007408  00000+0  34506-3 0  9990
2 47932  97.3910  51.3223 0004544 351.4317   8.6840 15.20184205288881
GAOFEN-12 02            
1 48079U 21026A   26155.85600616  .00000474  00000+0  69122-4 0  9998
2 48079  97.9920 154.0873 0003333 277.7418  82.3415 14.80286329279938
PLEIADES NEO 3          
1 48268U 21034A   26153.39599667  .00001403  00000+0  18488-3 0  9998
2 48268  97.8935 228.3753 0001471  92.5758 267.5623 14.81680615275465
PLEIADES NEO 4          
1 49070U 21073E   26155.45573171  .00001657  00000+0  21714-3 0  9991
2 49070  97.8930 230.4012 0001444  87.6628 272.4750 14.81677018259488
LANDSAT 9               
1 49260U 21088A   26155.14922468  .00000441  00000+0  10795-3 0  9998
2 49260  98.1855 225.4863 0001501  95.9861 264.1509 14.57125344249103
CSG-2                   
1 51444U 22008A   26155.79816428  .00000326  00000+0  47456-4 0  9994
2 51444  97.8880 339.5753 0001445  83.5035 276.6342 14.82163991234758
GAOFEN-12 03            
1 52912U 22069A   26155.88367168  .00000548  00000+0  79145-4 0  9990
2 52912  97.8292  44.0634 0001475 110.8505 249.2865 14.80013204212796
SWOT                    
1 54754U 22173A   26155.69810933  .00000054  00000+0  38028-4 0  9991
2 54754  77.6112  52.1695 0000208  99.5662 260.5513 14.00173248177407
GAOFEN-12 04            
1 57654U 23123A   26155.83436466  .00001269  00000+0  17377-3 0  9992
2 57654  97.9129  74.0294 0001767  89.0445 271.0970 14.80204561150804
PARS 1                  
1 59065U 24039Q   26155.88404013  .00012493  00000+0  26217-3 0  9999
2 59065  97.4823 136.4194 0010571 149.0228 211.1646 15.45463013126741
RESURS-P 4              
1 59371U 24061A   26155.85381468  .00003739  00000+0  12327-3 0  9999
2 59371  97.2750 103.9686 0001220 129.9130 230.2219 15.32058785121872
LEGION 1                
1 59625U 24081A   26155.22936838  .00004927  00000+0  25548-3 0  9990
2 59625  97.5016 233.2255 0010602  59.1771 301.0504 15.16572810115576
LEGION 2                
1 59626U 24081B   26155.25917714  .00004245  00000+0  22069-3 0  9994
2 59626  97.5016 233.3528 0012043  28.7822 331.4073 15.16553375115585
ALOS-4 (DAICHI-4)       
1 60182U 24123A   26155.84932699  .00001858  00000+0  25561-3 0  9991
2 60182  97.9239 253.1963 0001694  99.3382 260.8021 14.79469092104051
LEGION 3                
1 60452U 24146A   26155.14964732  .00004507  00000+0  24450-3 0  9992
2 60452  45.0008 100.4718 0006721  86.2017 273.9630 15.15933743100043
LEGION 4                
1 60453U 24146B   26155.28448850  .00003882  00000+0  21220-3 0  9993
2 60453  44.9994 191.6605 0013925 241.4075 118.5403 15.15940432 98913
SENTINEL-2C             
1 60989U 24157A   26155.09560777  .00000140  00000+0  70071-4 0  9994
2 60989  98.5692 230.0621 0001244  79.6188 280.5135 14.30814144 91113
IONOSFERA-M 1           
1 61735U 24199A   26155.25380992  .00000069  00000+0  50519-4 0  9992
2 61735  98.7188  28.5617 0001521 127.4885 232.6431 14.22751904125866
IONOSFERA-M 2           
1 61736U 24199B   26155.28813697  .00000080  00000+0  55211-4 0  9996
2 61736  98.7186  28.5063 0001535  50.5097 309.6217 14.22755093128993
PRSC-EO1                
1 62725U 25012A   26154.27983293  .00009097  00000+0  45362-3 0  9990
2 62725  97.4226 227.0114 0004074 321.0187  39.0752 15.17750222 76087
BIOMASS                 
1 63772U 25090A   26155.07885306  .00000694  00000+0  13088-3 0  9998
2 63772  98.0746 342.5882 0001397  63.8966 296.2382 14.67537224 58760
